{"type": "FeatureCollection", "features": [{"type": "Feature", "properties": {"ma_xa": "FAKE00001", "ten_xa": "Chuong Duong", "tinh_tp": "Ha Noi", "checkin_count": 368}, "geometry": {"type": "Polygon", "coordinates": [[[105.8949337, 20.833239850000002], [105.8959337, 20.833239850000002], [105.8959337, 20.83423985], [105.8949337, 20.83423985], [105.8949337, 20.833239850000002]]]}}, {"type": "Feature", "properties": {"ma_xa": "FAKE00002", "ten_xa": "Chuyen My", "tinh_tp": "Ha Noi", "checkin_count": 194}, "geometry": {"type": "Polygon", "coordinates": [[[105.87712905, 20.718981850000002], [105.87812905, 20.718981850000002], [105.87812905, 20.71998185], [105.87712905, 20.71998185], [105.87712905, 20.718981850000002]]]}}, {"type": "Feature", "properties": {"ma_xa": "FAKE00003", "ten_xa": "Dai Thanh", "tinh_tp": "Ha Noi", "checkin_count": 1456}, "geometry": {"type": "Polygon", "coordinates": [[[105.82657295, 20.93678124944587], [105.82757295, 20.93678124944587], [105.82757295, 20.937781249445866], [105.82657295, 20.937781249445866], [105.82657295, 20.93678124944587]]]}}, {"type": "Feature", "properties": {"ma_xa": "FAKE00004", "ten_xa": "Dai Xuyen", "tinh_tp": "Ha Noi", "checkin_count": 548}, "geometry": {"type": "Polygon", "coordinates": [[[105.94021849944393, 20.71298158229788], [105.94121849944393, 20.71298158229788], [105.94121849944393, 20.713981582297876], [105.94021849944393, 20.713981582297876], [105.94021849944393, 20.71298158229788]]]}}, {"type": "Feature", "properties": {"ma_xa": "FAKE00005", "ten_xa": "Dinh Cong", "tinh_tp": "Ha Noi", "checkin_count": 1315}, "geometry": {"type": "Polygon", "coordinates": [[[105.8261783, 20.9777703], [105.8271783, 20.9777703], [105.8271783, 20.978770299999997], [105.8261783, 20.978770299999997], [105.8261783, 20.9777703]]]}}, {"type": "Feature", "properties": {"ma_xa": "FAKE00006", "ten_xa": "Hoang Liet", "tinh_tp": "Ha Noi", "checkin_count": 791}, "geometry": {"type": "Polygon", "coordinates": [[[105.82872569999999, 20.9627754], [105.8297257, 20.9627754], [105.8297257, 20.9637754], [105.82872569999999, 20.9637754], [105.82872569999999, 20.9627754]]]}}, {"type": "Feature", "properties": {"ma_xa": "FAKE00007", "ten_xa": "Hoang Mai", "tinh_tp": "Ha Noi", "checkin_count": 801}, "geometry": {"type": "Polygon", "coordinates": [[[105.8523198, 20.9847053], [105.85331980000001, 20.9847053], [105.85331980000001, 20.9857053], [105.8523198, 20.9857053], [105.8523198, 20.9847053]]]}}, {"type": "Feature", "properties": {"ma_xa": "FAKE00008", "ten_xa": "Hong Van", "tinh_tp": "Ha Noi", "checkin_count": 799}, "geometry": {"type": "Polygon", "coordinates": [[[105.8782733, 20.886089009768575], [105.87927330000001, 20.886089009768575], [105.87927330000001, 20.887089009768573], [105.8782733, 20.887089009768573], [105.8782733, 20.886089009768575]]]}}, {"type": "Feature", "properties": {"ma_xa": "FAKE00009", "ten_xa": "Linh Nam", "tinh_tp": "Ha Noi", "checkin_count": 970}, "geometry": {"type": "Polygon", "coordinates": [[[105.88295795, 20.98229235], [105.88395795000001, 20.98229235], [105.88395795000001, 20.98329235], [105.88295795, 20.98329235], [105.88295795, 20.98229235]]]}}, {"type": "Feature", "properties": {"ma_xa": "FAKE00010", "ten_xa": "Mai Dong", "tinh_tp": "Ha Noi", "checkin_count": 12}, "geometry": {"type": "Polygon", "coordinates": [[[105.86788935, 20.987480650000002], [105.86888935, 20.987480650000002], [105.86888935, 20.98848065], [105.86788935, 20.98848065], [105.86788935, 20.987480650000002]]]}}, {"type": "Feature", "properties": {"ma_xa": "FAKE00011", "ten_xa": "Nam Phu", "tinh_tp": "Ha Noi", "checkin_count": 293}, "geometry": {"type": "Polygon", "coordinates": [[[105.8729603, 20.919411], [105.87396030000001, 20.919411], [105.87396030000001, 20.920410999999998], [105.8729603, 20.920410999999998], [105.8729603, 20.919411]]]}}, {"type": "Feature", "properties": {"ma_xa": "FAKE00012", "ten_xa": "Ngoc Hoi", "tinh_tp": "Ha Noi", "checkin_count": 588}, "geometry": {"type": "Polygon", "coordinates": [[[105.84163735, 20.916796200000004], [105.84263735, 20.916796200000004], [105.84263735, 20.9177962], [105.84163735, 20.9177962], [105.84163735, 20.916796200000004]]]}}, {"type": "Feature", "properties": {"ma_xa": "FAKE00013", "ten_xa": "Phu Xuyen", "tinh_tp": "Ha Noi", "checkin_count": 792}, "geometry": {"type": "Polygon", "coordinates": [[[105.90765244999999, 20.769026800000002], [105.90865244999999, 20.769026800000002], [105.90865244999999, 20.7700268], [105.90765244999999, 20.7700268], [105.90765244999999, 20.769026800000002]]]}}, {"type": "Feature", "properties": {"ma_xa": "FAKE00014", "ten_xa": "Phuong Duc", "tinh_tp": "Ha Noi", "checkin_count": 248}, "geometry": {"type": "Polygon", "coordinates": [[[105.83478735, 20.771666300000003], [105.83578735, 20.771666300000003], [105.83578735, 20.7726663], [105.83478735, 20.7726663], [105.83478735, 20.771666300000003]]]}}, {"type": "Feature", "properties": {"ma_xa": "FAKE00015", "ten_xa": "Tam Hiep", "tinh_tp": "Ha Noi", "checkin_count": 3}, "geometry": {"type": "Polygon", "coordinates": [[[105.83986209999999, 20.9481711], [105.8408621, 20.9481711], [105.8408621, 20.949171099999997], [105.83986209999999, 20.949171099999997], [105.83986209999999, 20.9481711]]]}}, {"type": "Feature", "properties": {"ma_xa": "FAKE00016", "ten_xa": "Thanh Liet", "tinh_tp": "Ha Noi", "checkin_count": 954}, "geometry": {"type": "Polygon", "coordinates": [[[105.8025055463314, 20.975105600000003], [105.80350554633141, 20.975105600000003], [105.80350554633141, 20.9761056], [105.8025055463314, 20.9761056], [105.8025055463314, 20.975105600000003]]]}}, {"type": "Feature", "properties": {"ma_xa": "FAKE00017", "ten_xa": "Thanh Tri", "tinh_tp": "Ha Noi", "checkin_count": 775}, "geometry": {"type": "Polygon", "coordinates": [[[105.8500519, 20.9401926], [105.8510519, 20.9401926], [105.8510519, 20.941192599999997], [105.8500519, 20.941192599999997], [105.8500519, 20.9401926]]]}}, {"type": "Feature", "properties": {"ma_xa": "FAKE00018", "ten_xa": "Thanh Xuan", "tinh_tp": "Ha Noi", "checkin_count": 3}, "geometry": {"type": "Polygon", "coordinates": [[[105.8497503, 20.9949361], [105.8507503, 20.9949361], [105.8507503, 20.995936099999998], [105.8497503, 20.995936099999998], [105.8497503, 20.9949361]]]}}, {"type": "Feature", "properties": {"ma_xa": "FAKE00019", "ten_xa": "Thuong Phuc", "tinh_tp": "Ha Noi", "checkin_count": 410}, "geometry": {"type": "Polygon", "coordinates": [[[105.8534167, 20.839383700000003], [105.8544167, 20.839383700000003], [105.8544167, 20.8403837], [105.8534167, 20.8403837], [105.8534167, 20.839383700000003]]]}}, {"type": "Feature", "properties": {"ma_xa": "FAKE00020", "ten_xa": "Thuong Tin", "tinh_tp": "Ha Noi", "checkin_count": 910}, "geometry": {"type": "Polygon", "coordinates": [[[105.8397403, 20.878621150000004], [105.84074030000001, 20.878621150000004], [105.84074030000001, 20.879621150000002], [105.8397403, 20.879621150000002], [105.8397403, 20.878621150000004]]]}}, {"type": "Feature", "properties": {"ma_xa": "FAKE00021", "ten_xa": "Tuong Mai", "tinh_tp": "Ha Noi", "checkin_count": 1178}, "geometry": {"type": "Polygon", "coordinates": [[[105.84768198181366, 20.987682250000002], [105.84868198181367, 20.987682250000002], [105.84868198181367, 20.98868225], [105.84768198181366, 20.98868225], [105.84768198181366, 20.987682250000002]]]}}, {"type": "Feature", "properties": {"ma_xa": "FAKE00022", "ten_xa": "Vinh Hung", "tinh_tp": "Ha Noi", "checkin_count": 989}, "geometry": {"type": "Polygon", "coordinates": [[[105.87926879999999, 20.989040000000003], [105.8802688, 20.989040000000003], [105.8802688, 20.99004], [105.87926879999999, 20.99004], [105.87926879999999, 20.989040000000003]]]}}, {"type": "Feature", "properties": {"ma_xa": "FAKE00023", "ten_xa": "Vinh Tuy", "tinh_tp": "Ha Noi", "checkin_count": 7}, "geometry": {"type": "Polygon", "coordinates": [[[105.8610245, 20.9915835], [105.8620245, 20.9915835], [105.8620245, 20.9925835], [105.8610245, 20.9925835], [105.8610245, 20.9915835]]]}}, {"type": "Feature", "properties": {"ma_xa": "FAKE00024", "ten_xa": "Yen So", "tinh_tp": "Ha Noi", "checkin_count": 732}, "geometry": {"type": "Polygon", "coordinates": [[[105.8635713, 20.971731100000003], [105.86457130000001, 20.971731100000003], [105.86457130000001, 20.9727311], [105.8635713, 20.9727311], [105.8635713, 20.971731100000003]]]}}, {"type": "Feature", "properties": {"ma_xa": "FAKE00025", "ten_xa": "Chuyen My", "tinh_tp": "Ha Noi (nha Bac Uyen Tuy)", "checkin_count": 3}, "geometry": {"type": "Polygon", "coordinates": [[[105.8839905, 20.7379269], [105.8849905, 20.7379269], [105.8849905, 20.7389269], [105.8839905, 20.7389269], [105.8839905, 20.7379269]]]}}]}